[{"OBJECT_NAME":"ION SCV-004","OBJECT_ID":"2022-002K","EPOCH":"2026-03-09T16:32:03.244416","MEAN_MOTION":15.29369331,"ECCENTRICITY":0.00072157,"INCLINATION":97.2961,"RA_OF_ASC_NODE":128.2294,"ARG_OF_PERICENTER":1.6783,"MEAN_ANOMALY":358.448,"EPHEMERIS_TYPE":0,"CLASSIFICATION_TYPE":"U","NORAD_CAT_ID":50993,"ELEMENT_SET_NO":999,"REV_AT_EPOCH":23008,"BSTAR":0.00023198467,"MEAN_MOTION_DOT":6.538e-5,"MEAN_MOTION_DDOT":0},{"OBJECT_NAME":"STARLINK-35735","OBJECT_ID":"2025-244AB","EPOCH":"2026-03-09T18:19:54.439392","MEAN_MOTION":15.30203353,"ECCENTRICITY":9.462e-5,"INCLINATION":53.1602,"RA_OF_ASC_NODE":229.3636,"ARG_OF_PERICENTER":85.3174,"MEAN_ANOMALY":274.7935,"EPHEMERIS_TYPE":0,"CLASSIFICATION_TYPE":"U","NORAD_CAT_ID":66231,"ELEMENT_SET_NO":999,"REV_AT_EPOCH":2167,"BSTAR":0.00066180114,"MEAN_MOTION_DOT":0.00019294,"MEAN_MOTION_DDOT":0}]
