ION SCV-004             
1 50993U 22002K   26068.68892644  .00006538  00000+0  23198-3 0  9998
2 50993  97.2961 128.2294 0007216   1.6783 358.4480 15.29369331230088
STARLINK-35735          
1 66231U 25244AB  26068.76382453  .00019294  00000+0  66180-3 0  9993
2 66231  53.1602 229.3636 0000946  85.3174 274.7935 15.30203353 21673
